{
  "type": "FeatureCollection",
  "features": [
    {
      "type": "Feature",
      "properties": {
        "norad_id": 39766,
        "name": "ALOS-2",
        "group": "resource",
        "lat": -76.05414211511564,
        "lon": 112.48701292684142,
        "alt_km": 639.3666374244822,
        "timestamp": "2025-12-09T11:33:54.457431+00:00",
        "meta_object_name": "ALOS-2",
        "meta_object_id": "2014-029A",
        "meta_epoch": "2025-12-09T05:25:36.202944",
        "meta_mean_motion": 14.79459079,
        "meta_eccentricity": 0.0001441,
        "meta_inclination": 97.9231,
        "meta_ra_of_asc_node": 78.1222,
        "meta_arg_of_pericenter": 100.3702,
        "meta_mean_anomaly": 259.7672,
        "meta_ephemeris_type": 0,
        "meta_classification_type": "U",
        "meta_norad_cat_id": 39766,
        "meta_element_set_no": 999,
        "meta_rev_at_epoch": 62349,
        "meta_bstar": 0.00040378,
        "meta_mean_motion_dot": 2.964e-05,
        "meta_mean_motion_ddot": 0,
        "tle_line1": "1 39766U 14029A   25343.22611346  .00002964  00000+0  40378-3 0  9994",
        "tle_line2": "2 39766  97.9231  78.1222 0001441 100.3702 259.7672 14.79459079623496"
      },
      "geometry": {
        "type": "Point",
        "coordinates": [
          112.48701292684142,
          -76.05414211511564
        ]
      }
    },
    {
      "type": "Feature",
      "properties": {
        "norad_id": 40010,
        "name": "KAZEOSAT 2",
        "group": "resource",
        "lat": 54.28549865254912,
        "lon": 18.594601636898666,
        "alt_km": 608.3499944291589,
        "timestamp": "2025-12-09T11:33:54.457441+00:00",
        "meta_object_name": "KAZEOSAT 2",
        "meta_object_id": "2014-033A",
        "meta_epoch": "2025-12-09T04:32:09.155040",
        "meta_mean_motion": 14.85157685,
        "meta_eccentricity": 0.0007467,
        "meta_inclination": 97.55,
        "meta_ra_of_asc_node": 187.6864,
        "meta_arg_of_pericenter": 220.0166,
        "meta_mean_anomaly": 140.05,
        "meta_ephemeris_type": 0,
        "meta_classification_type": "U",
        "meta_norad_cat_id": 40010,
        "meta_element_set_no": 999,
        "meta_rev_at_epoch": 62075,
        "meta_bstar": 0.00013798,
        "meta_mean_motion_dot": 1.131e-05,
        "meta_mean_motion_ddot": 0,
        "tle_line1": "1 40010U 14033A   25343.18899485  .00001131  00000+0  13798-3 0  9991",
        "tle_line2": "2 40010  97.5500 187.6864 0007467 220.0166 140.0500 14.85157685620754"
      },
      "geometry": {
        "type": "Point",
        "coordinates": [
          18.594601636898666,
          54.28549865254912
        ]
      }
    },
    {
      "type": "Feature",
      "properties": {
        "norad_id": 40011,
        "name": "HODOYOSHI-4",
        "group": "resource",
        "lat": -5.72743304825755,
        "lon": -8.234803073420949,
        "alt_km": 595.30257732255,
        "timestamp": "2025-12-09T11:33:54.457452+00:00",
        "meta_object_name": "HODOYOSHI-4",
        "meta_object_id": "2014-033B",
        "meta_epoch": "2025-12-09T04:16:26.251104",
        "meta_mean_motion": 14.8745877,
        "meta_eccentricity": 0.0022853,
        "meta_inclination": 97.5412,
        "meta_ra_of_asc_node": 172.2378,
        "meta_arg_of_pericenter": 212.8547,
        "meta_mean_anomaly": 147.1251,
        "meta_ephemeris_type": 0,
        "meta_classification_type": "U",
        "meta_norad_cat_id": 40011,
        "meta_element_set_no": 999,
        "meta_rev_at_epoch": 62055,
        "meta_bstar": 0.0001246,
        "meta_mean_motion_dot": 1.081e-05,
        "meta_mean_motion_ddot": 0,
        "tle_line1": "1 40011U 14033B   25343.17808161  .00001081  00000+0  12460-3 0  9991",
        "tle_line2": "2 40011  97.5412 172.2378 0022853 212.8547 147.1251 14.87458770620555"
      },
      "geometry": {
        "type": "Point",
        "coordinates": [
          -8.234803073420949,
          -5.72743304825755
        ]
      }
    },
    {
      "type": "Feature",
      "properties": {
        "norad_id": 40013,
        "name": "DEIMOS-2",
        "group": "resource",
        "lat": -78.4782566167463,
        "lon": -99.64839424816587,
        "alt_km": 596.8102358957003,
        "timestamp": "2025-12-09T11:33:54.457462+00:00",
        "meta_object_name": "DEIMOS-2",
        "meta_object_id": "2014-033D",
        "meta_epoch": "2025-12-09T05:29:41.242848",
        "meta_mean_motion": 14.92950578,
        "meta_eccentricity": 0.0001054,
        "meta_inclination": 97.6064,
        "meta_ra_of_asc_node": 219.1454,
        "meta_arg_of_pericenter": 88.5406,
        "meta_mean_anomaly": 271.5934,
        "meta_ephemeris_type": 0,
        "meta_classification_type": "U",
        "meta_norad_cat_id": 40013,
        "meta_element_set_no": 999,
        "meta_rev_at_epoch": 60937,
        "meta_bstar": 0.00025005,
        "meta_mean_motion_dot": 2.541e-05,
        "meta_mean_motion_ddot": 0,
        "tle_line1": "1 40013U 14033D   25343.22894957  .00002541  00000+0  25005-3 0  9998",
        "tle_line2": "2 40013  97.6064 219.1454 0001054  88.5406 271.5934 14.92950578609375"
      },
      "geometry": {
        "type": "Point",
        "coordinates": [
          -99.64839424816587,
          -78.4782566167463
        ]
      }
    },
    {
      "type": "Feature",
      "properties": {
        "norad_id": 40015,
        "name": "HODOYOSHI-3",
        "group": "resource",
        "lat": 37.38778414879794,
        "lon": -24.669262103088343,
        "alt_km": 621.63662483381,
        "timestamp": "2025-12-09T11:33:54.457472+00:00",
        "meta_object_name": "HODOYOSHI-3",
        "meta_object_id": "2014-033F",
        "meta_epoch": "2025-12-09T01:13:10.934400",
        "meta_mean_motion": 14.8478648,
        "meta_eccentricity": 0.0031809,
        "meta_inclination": 97.6199,
        "meta_ra_of_asc_node": 149.0465,
        "meta_arg_of_pericenter": 260.5751,
        "meta_mean_anomaly": 99.1868,
        "meta_ephemeris_type": 0,
        "meta_classification_type": "U",
        "meta_norad_cat_id": 40015,
        "meta_element_set_no": 999,
        "meta_rev_at_epoch": 61940,
        "meta_bstar": 0.0002815,
        "meta_mean_motion_dot": 2.357e-05,
        "meta_mean_motion_ddot": 0,
        "tle_line1": "1 40015U 14033F   25343.05082100  .00002357  00000+0  28150-3 0  9999",
        "tle_line2": "2 40015  97.6199 149.0465 0031809 260.5751  99.1868 14.84786480619400"
      },
      "geometry": {
        "type": "Point",
        "coordinates": [
          -24.669262103088343,
          37.38778414879794
        ]
      }
    },
    {
      "type": "Feature",
      "properties": {
        "norad_id": 40053,
        "name": "SPOT 7",
        "group": "resource",
        "lat": 32.58565672290864,
        "lon": -129.1509847528181,
        "alt_km": 688.3096655580548,
        "timestamp": "2025-12-09T11:33:54.457482+00:00",
        "meta_object_name": "SPOT 7",
        "meta_object_id": "2014-034A",
        "meta_epoch": "2025-12-09T04:19:07.561632",
        "meta_mean_motion": 14.60726721,
        "meta_eccentricity": 0.0001517,
        "meta_inclination": 98.0907,
        "meta_ra_of_asc_node": 45.3374,
        "meta_arg_of_pericenter": 90.3462,
        "meta_mean_anomaly": 269.7913,
        "meta_ephemeris_type": 0,
        "meta_classification_type": "U",
        "meta_norad_cat_id": 40053,
        "meta_element_set_no": 999,
        "meta_rev_at_epoch": 60939,
        "meta_bstar": 0.00017102,
        "meta_mean_motion_dot": 7.88e-06,
        "meta_mean_motion_ddot": 0,
        "tle_line1": "1 40053U 14034A   25343.17994863  .00000788  00000+0  17102-3 0  9994",
        "tle_line2": "2 40053  98.0907  45.3374 0001517  90.3462 269.7913 14.60726721609391"
      },
      "geometry": {
        "type": "Point",
        "coordinates": [
          -129.1509847528181,
          32.58565672290864
        ]
      }
    },
    {
      "type": "Feature",
      "properties": {
        "norad_id": 40072,
        "name": "SKYSAT-B",
        "group": "resource",
        "lat": 48.7986968813181,
        "lon": 116.68635383002444,
        "alt_km": 598.3966803738576,
        "timestamp": "2025-12-09T11:33:54.457492+00:00",
        "meta_object_name": "SKYSAT-B",
        "meta_object_id": "2014-037D",
        "meta_epoch": "2025-12-09T02:54:27.041184",
        "meta_mean_motion": 14.87305028,
        "meta_eccentricity": 0.0005857,
        "meta_inclination": 98.3607,
        "meta_ra_of_asc_node": 286.636,
        "meta_arg_of_pericenter": 161.034,
        "meta_mean_anomaly": 199.1094,
        "meta_ephemeris_type": 0,
        "meta_classification_type": "U",
        "meta_norad_cat_id": 40072,
        "meta_element_set_no": 999,
        "meta_rev_at_epoch": 61770,
        "meta_bstar": 0.00030935,
        "meta_mean_motion_dot": 2.731e-05,
        "meta_mean_motion_ddot": 0,
        "tle_line1": "1 40072U 14037D   25343.12114631  .00002731  00000+0  30935-3 0  9999",
        "tle_line2": "2 40072  98.3607 286.6360 0005857 161.0340 199.1094 14.87305028617701"
      },
      "geometry": {
        "type": "Point",
        "coordinates": [
          116.68635383002444,
          48.7986968813181
        ]
      }
    }
  ]
}